[{"OBJECT_NAME":"SAUDISAT 5A","OBJECT_ID":"2018-102A","EPOCH":"2026-03-09T23:40:00.596928","MEAN_MOTION":15.26941021,"ECCENTRICITY":0.00113651,"INCLINATION":97.3185,"RA_OF_ASC_NODE":132.4981,"ARG_OF_PERICENTER":121.7113,"MEAN_ANOMALY":238.5235,"EPHEMERIS_TYPE":0,"CLASSIFICATION_TYPE":"U","NORAD_CAT_ID":43831,"ELEMENT_SET_NO":999,"REV_AT_EPOCH":40053,"BSTAR":0.00030305233,"MEAN_MOTION_DOT":7.96e-5,"MEAN_MOTION_DDOT":0},{"OBJECT_NAME":"STARLINK-36552","OBJECT_ID":"2026-012L","EPOCH":"2026-03-09T22:49:41.343744","MEAN_MOTION":15.27600712,"ECCENTRICITY":3.977e-5,"INCLINATION":42.9977,"RA_OF_ASC_NODE":312.7612,"ARG_OF_PERICENTER":236.0011,"MEAN_ANOMALY":124.0803,"EPHEMERIS_TYPE":0,"CLASSIFICATION_TYPE":"U","NORAD_CAT_ID":67503,"ELEMENT_SET_NO":999,"REV_AT_EPOCH":780,"BSTAR":0.0010329756,"MEAN_MOTION_DOT":0.0002829,"MEAN_MOTION_DDOT":0}]
